FENGYUN 1C DEB          
1 29813U 99025DF  17345.03610084 -.00000153  00000-0 -62544-4 0  9996
2 29813  99.0397   4.5497 0012798 168.7176 245.3811 14.08757759560899
